{
  "type": "FeatureCollection",
  "features": [
    {
      "type": "Feature",
      "properties": {
        "norad_id": 40010,
        "name": "KAZEOSAT 2",
        "group": "resource",
        "lat": -68.82859647628928,
        "lon": -0.47349981253773726,
        "alt_km": 618.7101999063116,
        "timestamp": "2025-12-21T16:47:54.385856+00:00",
        "meta_object_name": "KAZEOSAT 2",
        "meta_object_id": "2014-033A",
        "meta_epoch": "2025-12-21T12:26:31.493184",
        "meta_mean_motion": 14.85179985,
        "meta_eccentricity": 0.0008462,
        "meta_inclination": 97.5495,
        "meta_ra_of_asc_node": 199.3791,
        "meta_arg_of_pericenter": 176.2991,
        "meta_mean_anomaly": 183.8288,
        "meta_ephemeris_type": 0,
        "meta_classification_type": "U",
        "meta_norad_cat_id": 40010,
        "meta_element_set_no": 999,
        "meta_rev_at_epoch": 62258,
        "meta_bstar": 6.1933e-05,
        "meta_mean_motion_dot": 4.81e-06,
        "meta_mean_motion_ddot": 0,
        "tle_line1": "1 40010U 14033A   25355.51842006  .00000481  00000+0  61933-4 0  9990",
        "tle_line2": "2 40010  97.5495 199.3791 0008462 176.2991 183.8288 14.85179985622588"
      },
      "geometry": {
        "type": "Point",
        "coordinates": [
          -0.47349981253773726,
          -68.82859647628928
        ]
      }
    },
    {
      "type": "Feature",
      "properties": {
        "norad_id": 40011,
        "name": "HODOYOSHI-4",
        "group": "resource",
        "lat": 51.64518391471606,
        "lon": 174.5046149879928,
        "alt_km": 608.7933918247509,
        "timestamp": "2025-12-21T16:47:54.385867+00:00",
        "meta_object_name": "HODOYOSHI-4",
        "meta_object_id": "2014-033B",
        "meta_epoch": "2025-12-21T11:43:12.107712",
        "meta_mean_motion": 14.87510993,
        "meta_eccentricity": 0.0023895,
        "meta_inclination": 97.5406,
        "meta_ra_of_asc_node": 183.9401,
        "meta_arg_of_pericenter": 171.188,
        "meta_mean_anomaly": 188.9761,
        "meta_ephemeris_type": 0,
        "meta_classification_type": "U",
        "meta_norad_cat_id": 40011,
        "meta_element_set_no": 999,
        "meta_rev_at_epoch": 62238,
        "meta_bstar": 0.00018318,
        "meta_mean_motion_dot": 1.617e-05,
        "meta_mean_motion_ddot": 0,
        "tle_line1": "1 40011U 14033B   25355.48833458  .00001617  00000+0  18318-3 0  9998",
        "tle_line2": "2 40011  97.5406 183.9401 0023895 171.1880 188.9761 14.87510993622386"
      },
      "geometry": {
        "type": "Point",
        "coordinates": [
          174.5046149879928,
          51.64518391471606
        ]
      }
    },
    {
      "type": "Feature",
      "properties": {
        "norad_id": 40013,
        "name": "DEIMOS-2",
        "group": "resource",
        "lat": 26.470088133631126,
        "lon": -132.61127617817414,
        "alt_km": 587.3907029232159,
        "timestamp": "2025-12-21T16:47:54.385878+00:00",
        "meta_object_name": "DEIMOS-2",
        "meta_object_id": "2014-033D",
        "meta_epoch": "2025-12-21T13:27:43.708320",
        "meta_mean_motion": 14.93010538,
        "meta_eccentricity": 0.0001521,
        "meta_inclination": 97.6068,
        "meta_ra_of_asc_node": 231.0698,
        "meta_arg_of_pericenter": 103.7244,
        "meta_mean_anomaly": 256.4145,
        "meta_ephemeris_type": 0,
        "meta_classification_type": "U",
        "meta_norad_cat_id": 40013,
        "meta_element_set_no": 999,
        "meta_rev_at_epoch": 61121,
        "meta_bstar": 0.00018439,
        "meta_mean_motion_dot": 1.863e-05,
        "meta_mean_motion_ddot": 0,
        "tle_line1": "1 40013U 14033D   25355.56092255  .00001863  00000+0  18439-3 0  9998",
        "tle_line2": "2 40013  97.6068 231.0698 0001521 103.7244 256.4145 14.93010538611217"
      },
      "geometry": {
        "type": "Point",
        "coordinates": [
          -132.61127617817414,
          26.470088133631126
        ]
      }
    },
    {
      "type": "Feature",
      "properties": {
        "norad_id": 40015,
        "name": "HODOYOSHI-3",
        "group": "resource",
        "lat": -70.58991620051377,
        "lon": -41.18588156368189,
        "alt_km": 602.7846266096767,
        "timestamp": "2025-12-21T16:47:54.385888+00:00",
        "meta_object_name": "HODOYOSHI-3",
        "meta_object_id": "2014-033F",
        "meta_epoch": "2025-12-21T10:48:52.181280",
        "meta_mean_motion": 14.84833803,
        "meta_eccentricity": 0.00323,
        "meta_inclination": 97.6204,
        "meta_ra_of_asc_node": 160.9071,
        "meta_arg_of_pericenter": 218.2843,
        "meta_mean_anomaly": 141.608,
        "meta_ephemeris_type": 0,
        "meta_classification_type": "U",
        "meta_norad_cat_id": 40015,
        "meta_element_set_no": 999,
        "meta_rev_at_epoch": 62124,
        "meta_bstar": 0.00015524,
        "meta_mean_motion_dot": 1.278e-05,
        "meta_mean_motion_ddot": 0,
        "tle_line1": "1 40015U 14033F   25355.45060395  .00001278  00000+0  15524-3 0  9990",
        "tle_line2": "2 40015  97.6204 160.9071 0032300 218.2843 141.6080 14.84833803621247"
      },
      "geometry": {
        "type": "Point",
        "coordinates": [
          -41.18588156368189,
          -70.58991620051377
        ]
      }
    },
    {
      "type": "Feature",
      "properties": {
        "norad_id": 40053,
        "name": "SPOT 7",
        "group": "resource",
        "lat": -77.77111726284402,
        "lon": 98.58535946198636,
        "alt_km": 699.1699841652189,
        "timestamp": "2025-12-21T16:47:54.385900+00:00",
        "meta_object_name": "SPOT 7",
        "meta_object_id": "2014-034A",
        "meta_epoch": "2025-12-21T12:14:09.673152",
        "meta_mean_motion": 14.60744762,
        "meta_eccentricity": 0.0001565,
        "meta_inclination": 98.09,
        "meta_ra_of_asc_node": 57.3836,
        "meta_arg_of_pericenter": 84.4079,
        "meta_mean_anomaly": 275.73,
        "meta_ephemeris_type": 0,
        "meta_classification_type": "U",
        "meta_norad_cat_id": 40053,
        "meta_element_set_no": 999,
        "meta_rev_at_epoch": 61119,
        "meta_bstar": 0.00014446,
        "meta_mean_motion_dot": 6.59e-06,
        "meta_mean_motion_ddot": 0,
        "tle_line1": "1 40053U 14034A   25355.50983418  .00000659  00000+0  14446-3 0  9993",
        "tle_line2": "2 40053  98.0900  57.3836 0001565  84.4079 275.7300 14.60744762611194"
      },
      "geometry": {
        "type": "Point",
        "coordinates": [
          98.58535946198636,
          -77.77111726284402
        ]
      }
    },
    {
      "type": "Feature",
      "properties": {
        "norad_id": 40072,
        "name": "SKYSAT-B",
        "group": "resource",
        "lat": -8.716102063798585,
        "lon": -58.82817404256537,
        "alt_km": 613.4894195493616,
        "timestamp": "2025-12-21T16:47:54.385913+00:00",
        "meta_object_name": "SKYSAT-B",
        "meta_object_id": "2014-037D",
        "meta_epoch": "2025-12-21T08:45:54.317664",
        "meta_mean_motion": 14.87355619,
        "meta_eccentricity": 0.000668,
        "meta_inclination": 98.3624,
        "meta_ra_of_asc_node": 299.5272,
        "meta_arg_of_pericenter": 125.9146,
        "meta_mean_anomaly": 234.2689,
        "meta_ephemeris_type": 0,
        "meta_classification_type": "U",
        "meta_norad_cat_id": 40072,
        "meta_element_set_no": 999,
        "meta_rev_at_epoch": 61952,
        "meta_bstar": 0.00015309,
        "meta_mean_motion_dot": 1.322e-05,
        "meta_mean_motion_ddot": 0,
        "tle_line1": "1 40072U 14037D   25355.36521201  .00001322  00000+0  15309-3 0  9996",
        "tle_line2": "2 40072  98.3624 299.5272 0006680 125.9146 234.2689 14.87355619619527"
      },
      "geometry": {
        "type": "Point",
        "coordinates": [
          -58.82817404256537,
          -8.716102063798585
        ]
      }
    },
    {
      "type": "Feature",
      "properties": {
        "norad_id": 40115,
        "name": "WORLDVIEW-3 (WV-3)",
        "group": "resource",
        "lat": 8.507756262653501,
        "lon": -110.94342076939661,
        "alt_km": 615.4555727658399,
        "timestamp": "2025-12-21T16:47:54.385923+00:00",
        "meta_object_name": "WORLDVIEW-3 (WV-3)",
        "meta_object_id": "2014-048A",
        "meta_epoch": "2025-12-21T11:10:36.965568",
        "meta_mean_motion": 14.84666267,
        "meta_eccentricity": 0.0001846,
        "meta_inclination": 97.8769,
        "meta_ra_of_asc_node": 67.6385,
        "meta_arg_of_pericenter": 134.9342,
        "meta_mean_anomaly": 225.2022,
        "meta_ephemeris_type": 0,
        "meta_classification_type": "U",
        "meta_norad_cat_id": 40115,
        "meta_element_set_no": 999,
        "meta_rev_at_epoch": 61553,
        "meta_bstar": 0.00010611,
        "meta_mean_motion_dot": 8.44e-06,
        "meta_mean_motion_ddot": 0,
        "tle_line1": "1 40115U 14048A   25355.46570562  .00000844  00000+0  10611-3 0  9990",
        "tle_line2": "2 40115  97.8769  67.6385 0001846 134.9342 225.2022 14.84666267615534"
      },
      "geometry": {
        "type": "Point",
        "coordinates": [
          -110.94342076939661,
          8.507756262653501
        ]
      }
    }
  ]
}